{"type": "FeatureCollection", "features": [ {"type": "Feature", "properties": {"norad_id": 43566, "name": "GSAT0219 (GALILEO 23)", "group": "gnss", "lat": 12.496145415165978, "lon": 158.8087642260481, "alt_km": 23229.70711754682, "timestamp": "2025-12-05T14:45:15.544284+00:00", "meta": {"OBJECT_NAME": "GSAT0219 (GALILEO 23)", "OBJECT_ID": "2018-060C", "EPOCH": "2025-12-03T14:03:42.727680", "MEAN_MOTION": 1.70475586, "ECCENTRICITY": 0.00058261, "INCLINATION": 57.2326, "RA_OF_ASC_NODE": 347.0697, "ARG_OF_PERICENTER": 286.7572, "MEAN_ANOMALY": 73.2143, "EPHEMERIS_TYPE": 0, "CLASSIFICATION_TYPE": "U", "NORAD_CAT_ID": 43566, "ELEMENT_SET_NO": 999, "REV_AT_EPOCH": 4585, "BSTAR": 0, "MEAN_MOTION_DOT": -6.8e-07, "MEAN_MOTION_DDOT": 0}, "tle": {"line1": "1 43566U 18060C   25337.58591120 -.00000068  00000+0  00000+0 0  9993", "line2": "2 43566  57.2326 347.0697 0005826 286.7572  73.2143  1.70475586 45850"}}, "geometry": {"type": "Point", "coordinates": [158.8087642260481, 12.496145415165978]}}, {"type": "Feature", "properties": {"norad_id": 43567, "name": "GSAT0220 (GALILEO 24)", "group": "gnss", "lat": 24.513501432889818, "lon": 4.102913930281294, "alt_km": 23224.985766799684, "timestamp": "2025-12-05T14:45:15.544296+00:00", "meta": {"OBJECT_NAME": "GSAT0220 (GALILEO 24)", "OBJECT_ID": "2018-060D", "EPOCH": "2025-12-01T11:03:06.852672", "MEAN_MOTION": 1.70475407, "ECCENTRICITY": 0.00061058, "INCLINATION": 57.2328, "RA_OF_ASC_NODE": 347.128, "ARG_OF_PERICENTER": 280.6549, "MEAN_ANOMALY": 79.3184, "EPHEMERIS_TYPE": 0, "CLASSIFICATION_TYPE": "U", "NORAD_CAT_ID": 43567, "ELEMENT_SET_NO": 999, "REV_AT_EPOCH": 4580, "BSTAR": 0, "MEAN_MOTION_DOT": -5.9e-07, "MEAN_MOTION_DDOT": 0}, "tle": {"line1": "1 43567U 18060D   25335.46049598 -.00000059  00000+0  00000+0 0  9996", "line2": "2 43567  57.2328 347.1280 0006105 280.6549  79.3184  1.70475407 45809"}}, "geometry": {"type": "Point", "coordinates": [4.102913930281294, 24.513501432889818]}}, {"type": "Feature", "properties": {"norad_id": 43581, "name": "BEIDOU-3 M5 (C23)", "group": "gnss", "lat": -40.75772491544716, "lon": 47.55602607210804, "alt_km": 21535.845308256412, "timestamp": "2025-12-05T14:45:15.544322+00:00", "meta": {"OBJECT_NAME": "BEIDOU-3 M5 (C23)", "OBJECT_ID": "2018-062A", "EPOCH": "2025-12-04T04:36:50.793120", "MEAN_MOTION": 1.86228551, "ECCENTRICITY": 0.0002115, "INCLINATION": 54.0891, "RA_OF_ASC_NODE": 188.9344, "ARG_OF_PERICENTER": 351.3867, "MEAN_ANOMALY": 8.7024, "EPHEMERIS_TYPE": 0, "CLASSIFICATION_TYPE": "U", "NORAD_CAT_ID": 43581, "ELEMENT_SET_NO": 999, "REV_AT_EPOCH": 5000, "BSTAR": 0, "MEAN_MOTION_DOT": 1.07e-06, "MEAN_MOTION_DDOT": 0}, "tle": {"line1": "1 43581U 18062A   25338.19225455  .00000107  00000+0  00000+0 0  9998", "line2": "2 43581  54.0891 188.9344 0002115 351.3867   8.7024  1.86228551 50003"}}, "geometry": {"type": "Point", "coordinates": [47.55602607210804, -40.75772491544716]}}, {"type": "Feature", "properties": {"norad_id": 43582, "name": "BEIDOU-3 M6 (C24)", "group": "gnss", "lat": -27.312009849206998, "lon": 166.9027461853212, "alt_km": 21528.15473678988, "timestamp": "2025-12-05T14:45:15.544338+00:00", "meta": {"OBJECT_NAME": "BEIDOU-3 M6 (C24)", "OBJECT_ID": "2018-062B", "EPOCH": "2025-12-04T01:19:44.398272", "MEAN_MOTION": 1.86229587, "ECCENTRICITY": 0.0007695, "INCLINATION": 54.0887, "RA_OF_ASC_NODE": 188.9281, "ARG_OF_PERICENTER": 45.9534, "MEAN_ANOMALY": 314.2033, "EPHEMERIS_TYPE": 0, "CLASSIFICATION_TYPE": "U", "NORAD_CAT_ID": 43582, "ELEMENT_SET_NO": 999, "REV_AT_EPOCH": 5000, "BSTAR": 0, "MEAN_MOTION_DOT": 1.09e-06, "MEAN_MOTION_DDOT": 0}, "tle": {"line1": "1 43582U 18062B   25338.05537498  .00000109  00000+0  00000+0 0  9999", "line2": "2 43582  54.0887 188.9281 0007695  45.9534 314.2033  1.86229587 50009"}}, "geometry": {"type": "Point", "coordinates": [166.9027461853212, -27.312009849206998]}}, {"type": "Feature", "properties": {"norad_id": 43602, "name": "BEIDOU-3 M12 (C26)", "group": "gnss", "lat": 5.867945673522286, "lon": -168.12898287863368, "alt_km": 21506.536211873095, "timestamp": "2025-12-05T14:45:15.544350+00:00", "meta": {"OBJECT_NAME": "BEIDOU-3 M12 (C26)", "OBJECT_ID": "2018-067A", "EPOCH": "2025-12-03T23:50:04.646976", "MEAN_MOTION": 1.86227631, "ECCENTRICITY": 0.0009142, "INCLINATION": 54.1831, "RA_OF_ASC_NODE": 187.6601, "ARG_OF_PERICENTER": 40.5881, "MEAN_ANOMALY": 319.5721, "EPHEMERIS_TYPE": 0, "CLASSIFICATION_TYPE": "U", "NORAD_CAT_ID": 43602, "ELEMENT_SET_NO": 999, "REV_AT_EPOCH": 4948, "BSTAR": 0, "MEAN_MOTION_DOT": 1.1e-06, "MEAN_MOTION_DDOT": 0}, "tle": {"line1": "1 43602U 18067A   25337.99310934  .00000110  00000+0  00000+0 0  9995", "line2": "2 43602  54.1831 187.6601 0009142  40.5881 319.5721  1.86227631 49489"}}, "geometry": {"type": "Point", "coordinates": [-168.12898287863368, 5.867945673522286]}}, {"type": "Feature", "properties": {"norad_id": 43603, "name": "BEIDOU-3 M11 (C25)", "group": "gnss", "lat": -53.55623197269018, "lon": 109.53646674095907, "alt_km": 21541.82165976359, "timestamp": "2025-12-05T14:45:15.544361+00:00", "meta": {"OBJECT_NAME": "BEIDOU-3 M11 (C25)", "OBJECT_ID": "2018-067B", "EPOCH": "2025-12-04T03:03:44.195904", "MEAN_MOTION": 1.86227126, "ECCENTRICITY": 0.0005572, "INCLINATION": 54.1804, "RA_OF_ASC_NODE": 187.6197, "ARG_OF_PERICENTER": 36.31, "MEAN_ANOMALY": 323.8191, "EPHEMERIS_TYPE": 0, "CLASSIFICATION_TYPE": "U", "NORAD_CAT_ID": 43603, "ELEMENT_SET_NO": 999, "REV_AT_EPOCH": 4951, "BSTAR": 0, "MEAN_MOTION_DOT": 1.09e-06, "MEAN_MOTION_DDOT": 0}, "tle": {"line1": "1 43603U 18067B   25338.12759486  .00000109  00000+0  00000+0 0  9999", "line2": "2 43603  54.1804 187.6197 0005572  36.3100 323.8191  1.86227126 49512"}}, "geometry": {"type": "Point", "coordinates": [109.53646674095907, -53.55623197269018]}}, {"type": "Feature", "properties": {"norad_id": 43622, "name": "BEIDOU-3 M13 (C32)", "group": "gnss", "lat": -42.292717790032555, "lon": 32.00525415824545, "alt_km": 21517.405829152714, "timestamp": "2025-12-05T14:45:15.544372+00:00", "meta": {"OBJECT_NAME": "BEIDOU-3 M13 (C32)", "OBJECT_ID": "2018-072A", "EPOCH": "2025-12-03T13:07:53.541408", "MEAN_MOTION": 1.86230692, "ECCENTRICITY": 0.00056735, "INCLINATION": 56.4512, "RA_OF_ASC_NODE": 69.1249, "ARG_OF_PERICENTER": 298.6305, "MEAN_ANOMALY": 61.3164, "EPHEMERIS_TYPE": 0, "CLASSIFICATION_TYPE": "U", "NORAD_CAT_ID": 43622, "ELEMENT_SET_NO": 999, "REV_AT_EPOCH": 4901, "BSTAR": 0, "MEAN_MOTION_DOT": -5e-07, "MEAN_MOTION_DDOT": 0}, "tle": {"line1": "1 43622U 18072A   25337.54714747 -.00000050  00000+0  00000+0 0  9998", "line2": "2 43622  56.4512  69.1249 0005673 298.6305  61.3164  1.86230692 49019"}}, "geometry": {"type": "Point", "coordinates": [32.00525415824545, -42.292717790032555]}}, {"type": "Feature", "properties": {"norad_id": 43623, "name": "BEIDOU-3 M14 (C33)", "group": "gnss", "lat": 29.679284236980855, "lon": 91.23614628203073, "alt_km": 21520.313648943964, "timestamp": "2025-12-05T14:45:15.544383+00:00", "meta": {"OBJECT_NAME": "BEIDOU-3 M14 (C33)", "OBJECT_ID": "2018-072B", "EPOCH": "2025-12-01T19:14:30.937344", "MEAN_MOTION": 1.86230707, "ECCENTRICITY": 0.00030488, "INCLINATION": 56.4513, "RA_OF_ASC_NODE": 69.1766, "ARG_OF_PERICENTER": 335.7773, "MEAN_ANOMALY": 24.2115, "EPHEMERIS_TYPE": 0, "CLASSIFICATION_TYPE": "U", "NORAD_CAT_ID": 43623, "ELEMENT_SET_NO": 999, "REV_AT_EPOCH": 4897, "BSTAR": 0, "MEAN_MOTION_DOT": -4.3e-07, "MEAN_MOTION_DDOT": 0}, "tle": {"line1": "1 43623U 18072B   25335.80174696 -.00000043  00000+0  00000+0 0  9991", "line2": "2 43623  56.4513  69.1766 0003048 335.7773  24.2115  1.86230707 48976"}}, "geometry": {"type": "Point", "coordinates": [91.23614628203073, 29.679284236980855]}}, {"type": "Feature", "properties": {"norad_id": 43647, "name": "BEIDOU-3 M16 (C35)", "group": "gnss", "lat": -49.49484840251768, "lon": -110.62714807457574, "alt_km": 21532.72166857249, "timestamp": "2025-12-05T14:45:15.544394+00:00", "meta": {"OBJECT_NAME": "BEIDOU-3 M16 (C35)", "OBJECT_ID": "2018-078A", "EPOCH": "2025-12-03T00:48:25.625088", "MEAN_MOTION": 1.86232114, "ECCENTRICITY": 0.00069753, "INCLINATION": 54.271, "RA_OF_ASC_NODE": 306.8606, "ARG_OF_PERICENTER": 18.45, "MEAN_ANOMALY": 341.5609, "EPHEMERIS_TYPE": 0, "CLASSIFICATION_TYPE": "U", "NORAD_CAT_ID": 43647, "ELEMENT_SET_NO": 999, "REV_AT_EPOCH": 4850, "BSTAR": 0, "MEAN_MOTION_DOT": -6.5e-07, "MEAN_MOTION_DDOT": 0}, "tle": {"line1": "1 43647U 18078A   25337.03362992 -.00000065  00000+0  00000+0 0  9992", "line2": "2 43647  54.2710 306.8606 0006975  18.4500 341.5609  1.86232114 48502"}}, "geometry": {"type": "Point", "coordinates": [-110.62714807457574, -49.49484840251768]}}, {"type": "Feature", "properties": {"norad_id": 43648, "name": "BEIDOU-3 M15 (C34)", "group": "gnss", "lat": -19.246586430000757, "lon": 141.29845268110716, "alt_km": 21540.457625261533, "timestamp": "2025-12-05T14:45:15.544406+00:00", "meta": {"OBJECT_NAME": "BEIDOU-3 M15 (C34)", "OBJECT_ID": "2018-078B", "EPOCH": "2025-12-01T00:21:40.976640", "MEAN_MOTION": 1.86232, "ECCENTRICITY": 0.0003569, "INCLINATION": 54.2686, "RA_OF_ASC_NODE": 306.9322, "ARG_OF_PERICENTER": 17.0419, "MEAN_ANOMALY": 342.9634, "EPHEMERIS_TYPE": 0, "CLASSIFICATION_TYPE": "U", "NORAD_CAT_ID": 43648, "ELEMENT_SET_NO": 999, "REV_AT_EPOCH": 4848, "BSTAR": 0, "MEAN_MOTION_DOT": -5.6e-07, "MEAN_MOTION_DDOT": 0}, "tle": {"line1": "1 43648U 18078B   25335.01505760 -.00000056  00000+0  00000+0 0  9991", "line2": "2 43648  54.2686 306.9322 0003569  17.0419 342.9634  1.86232000 48485"}}, "geometry": {"type": "Point", "coordinates": [141.29845268110716, -19.246586430000757]}}]}